{"type": "FeatureCollection", "features": [ {"type": "Feature", "properties": {"norad_id": 60989, "name": "SENTINEL-2C", "group": "resource", "lat": 6.611601472727474, "lon": 72.21186618019985, "alt_km": 791.0935647513024, "timestamp": "2025-12-26T22:28:05.437252+00:00", "meta": {"OBJECT_NAME": "SENTINEL-2C", "OBJECT_ID": "2024-157A", "EPOCH": "2025-12-26T03:58:31.725408", "MEAN_MOTION": 14.30818046, "ECCENTRICITY": 0.00013866, "INCLINATION": 98.5666, "RA_OF_ASC_NODE": 72.4538, "ARG_OF_PERICENTER": 102.8528, "MEAN_ANOMALY": 257.2809, "EPHEMERIS_TYPE": 0, "CLASSIFICATION_TYPE": "U", "NORAD_CAT_ID": 60989, "ELEMENT_SET_NO": 999, "REV_AT_EPOCH": 6824, "BSTAR": 0.0001005445, "MEAN_MOTION_DOT": 2.2e-06, "MEAN_MOTION_DDOT": 0}, "tle": {"line1": "1 60989U 24157A   25360.16564497  .00000220  00000+0  10054-3 0  9995", "line2": "2 60989  98.5666  72.4538 0001386 102.8528 257.2809 14.30818046 68245"}}, "geometry": {"type": "Point", "coordinates": [72.21186618019985, 6.611601472727474]}}, {"type": "Feature", "properties": {"norad_id": 61735, "name": "IONOSFERA-M 1", "group": "resource", "lat": -39.37254200030183, "lon": 43.42277121878299, "alt_km": 822.7669351536197, "timestamp": "2025-12-26T22:28:05.437265+00:00", "meta": {"OBJECT_NAME": "IONOSFERA-M 1", "OBJECT_ID": "2024-199A", "EPOCH": "2025-12-26T14:41:11.668704", "MEAN_MOTION": 14.22717094, "ECCENTRICITY": 2.727e-05, "INCLINATION": 98.7395, "RA_OF_ASC_NODE": 230.353, "ARG_OF_PERICENTER": 2.6166, "MEAN_ANOMALY": 357.5013, "EPHEMERIS_TYPE": 0, "CLASSIFICATION_TYPE": "U", "NORAD_CAT_ID": 61735, "ELEMENT_SET_NO": 999, "REV_AT_EPOCH": 10316, "BSTAR": 4.6092596e-05, "MEAN_MOTION_DOT": 5.9e-07, "MEAN_MOTION_DDOT": 0}, "tle": {"line1": "1 61735U 24199A   25360.61194061  .00000059  00000+0  46093-4 0  9990", "line2": "2 61735  98.7395 230.3530 0000272   2.6166 357.5013 14.22717094103165"}}, "geometry": {"type": "Point", "coordinates": [43.42277121878299, -39.37254200030183]}}, {"type": "Feature", "properties": {"norad_id": 61736, "name": "IONOSFERA-M 2", "group": "resource", "lat": 41.90283170926151, "lon": -137.34703732344576, "alt_km": 811.848223790872, "timestamp": "2025-12-26T22:28:05.437276+00:00", "meta": {"OBJECT_NAME": "IONOSFERA-M 2", "OBJECT_ID": "2024-199B", "EPOCH": "2025-12-26T15:31:03.401760", "MEAN_MOTION": 14.22719263, "ECCENTRICITY": 0.00018726, "INCLINATION": 98.7394, "RA_OF_ASC_NODE": 230.2997, "ARG_OF_PERICENTER": 92.6122, "MEAN_ANOMALY": 267.527, "EPHEMERIS_TYPE": 0, "CLASSIFICATION_TYPE": "U", "NORAD_CAT_ID": 61736, "ELEMENT_SET_NO": 999, "REV_AT_EPOCH": 10629, "BSTAR": 4.8670408e-05, "MEAN_MOTION_DOT": 6.5e-07, "MEAN_MOTION_DDOT": 0}, "tle": {"line1": "1 61736U 24199B   25360.64656715  .00000065  00000+0  48670-4 0  9993", "line2": "2 61736  98.7394 230.2997 0001872  92.6122 267.5270 14.22719263106291"}}, "geometry": {"type": "Point", "coordinates": [-137.34703732344576, 41.90283170926151]}}, {"type": "Feature", "properties": {"norad_id": 63772, "name": "BIOMASS", "group": "resource", "lat": 1.379443935496756, "lon": -174.45703000000637, "alt_km": 671.6420094511113, "timestamp": "2025-12-26T22:28:05.437287+00:00", "meta": {"OBJECT_NAME": "BIOMASS", "OBJECT_ID": "2025-090A", "EPOCH": "2025-12-26T12:38:37.094208", "MEAN_MOTION": 14.67541844, "ECCENTRICITY": 0.00010805, "INCLINATION": 98.0698, "RA_OF_ASC_NODE": 185.3355, "ARG_OF_PERICENTER": 85.3818, "MEAN_ANOMALY": 274.751, "EPHEMERIS_TYPE": 0, "CLASSIFICATION_TYPE": "U", "NORAD_CAT_ID": 63772, "ELEMENT_SET_NO": 999, "REV_AT_EPOCH": 3536, "BSTAR": 0.00022693578, "MEAN_MOTION_DOT": 1.239e-05, "MEAN_MOTION_DDOT": 0}, "tle": {"line1": "1 63772U 25090A   25360.52681822  .00001239  00000+0  22694-3 0  9991", "line2": "2 63772  98.0698 185.3355 0001080  85.3818 274.7510 14.67541844 35366"}}, "geometry": {"type": "Point", "coordinates": [-174.45703000000637, 1.379443935496756]}}, {"type": "Feature", "properties": {"norad_id": 64694, "name": "GOSAT-GW (IBUKI GW)", "group": "resource", "lat": -32.079470036176986, "lon": 111.1072745819035, "alt_km": 675.6052851959821, "timestamp": "2025-12-26T22:28:05.437297+00:00", "meta": {"OBJECT_NAME": "GOSAT-GW (IBUKI GW)", "OBJECT_ID": "2025-141A", "EPOCH": "2025-12-26T18:13:51.737376", "MEAN_MOTION": 14.67563585, "ECCENTRICITY": 0.0001423, "INCLINATION": 98.0441, "RA_OF_ASC_NODE": 296.0194, "ARG_OF_PERICENTER": 82.102, "MEAN_ANOMALY": 278.0346, "EPHEMERIS_TYPE": 0, "CLASSIFICATION_TYPE": "U", "NORAD_CAT_ID": 64694, "ELEMENT_SET_NO": 999, "REV_AT_EPOCH": 2655, "BSTAR": 0.0002044, "MEAN_MOTION_DOT": 1.112e-05, "MEAN_MOTION_DDOT": 0}, "tle": {"line1": "1 64694U 25141A   25360.75962659  .00001112  00000+0  20440-3 0  9994", "line2": "2 64694  98.0441 296.0194 0001423  82.1020 278.0346 14.67563585 26559"}}, "geometry": {"type": "Point", "coordinates": [111.1072745819035, -32.079470036176986]}}, {"type": "Feature", "properties": {"norad_id": 64876, "name": "IONOSFERA-M 3", "group": "resource", "lat": 21.229143341254026, "lon": -40.960483063772585, "alt_km": 819.0468615207319, "timestamp": "2025-12-26T22:28:05.437307+00:00", "meta": {"OBJECT_NAME": "IONOSFERA-M 3", "OBJECT_ID": "2025-155A", "EPOCH": "2025-12-26T18:59:19.318848", "MEAN_MOTION": 14.21444453, "ECCENTRICITY": 0.0001778, "INCLINATION": 98.5802, "RA_OF_ASC_NODE": 322.2609, "ARG_OF_PERICENTER": 37.0679, "MEAN_ANOMALY": 323.0621, "EPHEMERIS_TYPE": 0, "CLASSIFICATION_TYPE": "U", "NORAD_CAT_ID": 64876, "ELEMENT_SET_NO": 999, "REV_AT_EPOCH": 2191, "BSTAR": 6.5574e-05, "MEAN_MOTION_DOT": 1.01e-06, "MEAN_MOTION_DDOT": 0}, "tle": {"line1": "1 64876U 25155A   25360.79119582  .00000101  00000+0  65574-4 0  9999", "line2": "2 64876  98.5802 322.2609 0001778  37.0679 323.0621 14.21444453 21916"}}, "geometry": {"type": "Point", "coordinates": [-40.960483063772585, 21.229143341254026]}}, {"type": "Feature", "properties": {"norad_id": 64877, "name": "IONOSFERA-M 4", "group": "resource", "lat": -22.162232573941285, "lon": 138.79539269361817, "alt_km": 826.5657715873749, "timestamp": "2025-12-26T22:28:05.437317+00:00", "meta": {"OBJECT_NAME": "IONOSFERA-M 4", "OBJECT_ID": "2025-155B", "EPOCH": "2025-12-26T14:45:42.821280", "MEAN_MOTION": 14.21445553, "ECCENTRICITY": 0.00012368, "INCLINATION": 98.5802, "RA_OF_ASC_NODE": 322.0091, "ARG_OF_PERICENTER": 50.7642, "MEAN_ANOMALY": 309.3646, "EPHEMERIS_TYPE": 0, "CLASSIFICATION_TYPE": "U", "NORAD_CAT_ID": 64877, "ELEMENT_SET_NO": 999, "REV_AT_EPOCH": 2188, "BSTAR": 6.4863124e-05, "MEAN_MOTION_DOT": 9.9e-07, "MEAN_MOTION_DDOT": 0}, "tle": {"line1": "1 64877U 25155B   25360.61507895  .00000099  00000+0  64863-4 0  9995", "line2": "2 64877  98.5802 322.0091 0001236  50.7642 309.3646 14.21445553 21883"}}, "geometry": {"type": "Point", "coordinates": [138.79539269361817, -22.162232573941285]}}, {"type": "Feature", "properties": {"norad_id": 64899, "name": "MICROCARB", "group": "resource", "lat": 58.80981413300587, "lon": 62.61863347926888, "alt_km": 639.5672529386211, "timestamp": "2025-12-26T22:28:05.437328+00:00", "meta": {"OBJECT_NAME": "MICROCARB", "OBJECT_ID": "2025-156A", "EPOCH": "2025-12-26T10:46:43.165344", "MEAN_MOTION": 14.72078872, "ECCENTRICITY": 0.00176686, "INCLINATION": 98.0009, "RA_OF_ASC_NODE": 75.5739, "ARG_OF_PERICENTER": 103.7496, "MEAN_ANOMALY": 256.5679, "EPHEMERIS_TYPE": 0, "CLASSIFICATION_TYPE": "U", "NORAD_CAT_ID": 64899, "ELEMENT_SET_NO": 999, "REV_AT_EPOCH": 2255, "BSTAR": 0.00012845891, "MEAN_MOTION_DOT": 7.6e-06, "MEAN_MOTION_DDOT": 0}, "tle": {"line1": "1 64899U 25156A   25360.44911071  .00000760  00000+0  12846-3 0  9994", "line2": "2 64899  98.0009  75.5739 0017668 103.7496 256.5679 14.72078872 22558"}}, "geometry": {"type": "Point", "coordinates": [62.61863347926888, 58.80981413300587]}}, {"type": "Feature", "properties": {"norad_id": 64900, "name": "CO3D 3", "group": "resource", "lat": 36.69127027098815, "lon": 71.51562526231181, "alt_km": 501.9520082997742, "timestamp": "2025-12-26T22:28:05.437338+00:00", "meta": {"OBJECT_NAME": "CO3D 3", "OBJECT_ID": "2025-156B", "EPOCH": "2025-12-26T12:49:38.111232", "MEAN_MOTION": 15.2020057, "ECCENTRICITY": 0.00013033, "INCLINATION": 97.4343, "RA_OF_ASC_NODE": 76.7033, "ARG_OF_PERICENTER": 70.4568, "MEAN_ANOMALY": 289.6808, "EPHEMERIS_TYPE": 0, "CLASSIFICATION_TYPE": "U", "NORAD_CAT_ID": 64900, "ELEMENT_SET_NO": 999, "REV_AT_EPOCH": 2330, "BSTAR": 1.9442844e-05, "MEAN_MOTION_DOT": 3.53e-06, "MEAN_MOTION_DDOT": 0}, "tle": {"line1": "1 64900U 25156B   25360.53446888  .00000353  00000+0  19443-4 0  9995", "line2": "2 64900  97.4343  76.7033 0001303  70.4568 289.6808 15.20200570 23305"}}, "geometry": {"type": "Point", "coordinates": [71.51562526231181, 36.69127027098815]}}, {"type": "Feature", "properties": {"norad_id": 64901, "name": "CO3D 4", "group": "resource", "lat": 35.83010827083298, "lon": 71.69026730309676, "alt_km": 503.1806518829753, "timestamp": "2025-12-26T22:28:05.437348+00:00", "meta": {"OBJECT_NAME": "CO3D 4", "OBJECT_ID": "2025-156C", "EPOCH": "2025-12-26T14:24:38.784960", "MEAN_MOTION": 15.20199581, "ECCENTRICITY": 0.00014178, "INCLINATION": 97.4337, "RA_OF_ASC_NODE": 76.7688, "ARG_OF_PERICENTER": 147.7595, "MEAN_ANOMALY": 212.3727, "EPHEMERIS_TYPE": 0, "CLASSIFICATION_TYPE": "U", "NORAD_CAT_ID": 64901, "ELEMENT_SET_NO": 999, "REV_AT_EPOCH": 2331, "BSTAR": 0.00029085743, "MEAN_MOTION_DOT": 6.234e-05, "MEAN_MOTION_DDOT": 0}, "tle": {"line1": "1 64901U 25156C   25360.60044890  .00006234  00000+0  29086-3 0  9998", "line2": "2 64901  97.4337  76.7688 0001417 147.7595 212.3727 15.20199581 23312"}}, "geometry": {"type": "Point", "coordinates": [71.69026730309676, 35.83010827083298]}}]}